{
  "name": "metar",
  "version": "0.0.3",
  "description": "METAR weather report parser",
  "main": "metar.js",
  "scripts": {
    "test": "mocha -C test"
  },
  "repository": {
    "type": "git",
    "url": "https://github.com/epeli/metarjs.git"
  },
  "author": {
    "name": "Esa-Matti Suuronen"
  },
  "license": "MIT",
  "devDependencies": {
    "mocha": "~1.11.0"
  },
  "readme": "# metar.js\n\n[METAR](http://en.wikipedia.org/wiki/METAR) (Meteorological Aviation Report) parser for Javascript\n\nDemo: <http://epeli.github.io/metar.js/>\n\n## Install\n\nnode.js\n\n    npm install metar\n\nbrowser\n\n```html\n<script src=\"metar.js\"></script>\n```\n\n## Example\n\nGet reports from <http://weather.noaa.gov/pub/data/observations/metar/stations/>\n\n```javascript\nvar parseMETAR = require(\"metar\");\n\nconsole.log(parseMETAR(\"EFJY 172120Z AUTO 30004KT 260V330 CAVOK 11/10 Q1008\"));\n```\n\n",
  "readmeFilename": "README.md",
  "bugs": {
    "url": "https://github.com/epeli/metarjs/issues"
  },
  "_id": "metar@0.0.3",
  "dist": {
    "shasum": "560825cbe80e40bb0662716a123e1523c313c69c"
  },
  "_from": "metar@",
  "_resolved": "https://registry.npmjs.org/metar/-/metar-0.0.3.tgz"
}
